     2.10           NAVIGATION DATA                         RINEX VERSION / TYPE
SPIDER V4,0,0,3554                      2015 04 15 00:25    PGM / RUN BY / DATE 
   1.3970D-08 -7.4506D-09 -5.9605D-08  1.1921D-07           ION ALPHA           
   1.2698D+05 -1.8022D+05  0.0000D+00  1.9661D+05           ION BETA            
    1.862645149231D-09 8.881784197001D-16   503808     1828 DELTA-UTC: A0,A1,T,W
    16                                                      LEAP SECONDS        
                                                            END OF HEADER       
13 15 01 20 14 00  0.0-8.053984493017D-05-3.524291969370D-12 0.000000000000D+00
    6.500000000000D+01-3.050000000000D+01 4.256248686829D-09-1.826731566999D+00
   -1.631677150726D-06 5.331964232028D-03 1.036189496517D-05 5.153685384750D+03
    2.232000000000D+05-6.891787052155D-08 2.526574878374D+00 6.332993507385D-08
    9.752846623723D-01 1.850937500000D+02 2.068393292517D+00-7.803539148199D-09
   -8.725363209727D-10 1.000000000000D+00 1.828000000000D+03 0.000000000000D+00
    2.000000000000D+00 0.000000000000D+00-1.164153218269D-08 6.500000000000D+01
    2.232000000000D+05 0.000000000000D+00
 5 15 01 20 16 00  0.0-2.902746200562D-04 5.115907697473D-12 0.000000000000D+00
    5.800000000000D+01 2.987500000000D+01 5.548445258796D-09 1.996834066577D+00
    1.624226570129D-06 4.044111003168D-03 5.267560482025D-06 5.153744073868D+03
    2.304000000000D+05-7.823109626770D-08 1.363315753882D+00 4.656612873077D-08
    9.462399848421D-01 2.725625000000D+02 4.240790299881D-01-8.489639213849D-09
    3.668010062352D-10 1.000000000000D+00 1.828000000000D+03 0.000000000000D+00
    2.000000000000D+00 0.000000000000D+00-1.071020960808D-08 5.800000000000D+01
    2.304000000000D+05 0.000000000000D+00
 2 15 01 20 16 00  0.0 5.430094897747D-04 2.273736754432D-12 0.000000000000D+00
    6.100000000000D+01-3.531250000000D+01 4.884132209781D-09-3.285956616368D-01
   -1.735985279083D-06 1.424016687088D-02 1.345016062260D-05 5.153758556366D+03
    2.304000000000D+05-7.450580596924D-09 2.934982878275D-01 2.291053533554D-07
    9.407400463075D-01 1.131875000000D+02-2.337979765945D+00-8.285701902366D-09
    5.032352312639D-10 1.000000000000D+00 1.828000000000D+03 0.000000000000D+00
    2.000000000000D+00 0.000000000000D+00-2.048909664154D-08 6.100000000000D+01
    2.304000000000D+05 0.000000000000D+00
 6 15 01 20 16 00  0.0 5.700951442122D-05 1.102762325900D-11 0.000000000000D+00
    2.900000000000D+01-2.753125000000D+01 4.241605289224D-09 1.760243141352D+00
   -1.581385731697D-06 4.492376465350D-04 1.382082700729D-05 5.153689222336D+03
    2.304000000000D+05-4.284083843231D-08 3.197590571225D-01 2.607703208923D-08
    9.620401818180D-01 1.143750000000D+02 2.475299645046D+00-7.761037146281D-09
    5.214502718509D-10 1.000000000000D+00 1.828000000000D+03 0.000000000000D+00
    2.000000000000D+00 0.000000000000D+00 4.656612873077D-09 2.900000000000D+01
    2.304000000000D+05 0.000000000000D+00
 7 15 01 20 16 00  0.0 4.332098178566D-04 3.296918293927D-12 0.000000000000D+00
    8.900000000000D+01 1.287187500000D+02 3.863375397373D-09-1.510944821077D+00
    6.524845957756D-06 7.968468591571D-03 1.148879528046D-05 5.153743818283D+03
    2.304000000000D+05 2.980232238770D-08-2.794911885173D+00-1.918524503708D-07
    9.718670560610D-01 1.666250000000D+02-2.751602960542D+00-7.590672979063D-09
    3.357282854499D-11 1.000000000000D+00 1.828000000000D+03 0.000000000000D+00
    2.000000000000D+00 0.000000000000D+00-1.117587089539D-08 8.900000000000D+01
    2.304000000000D+05 0.000000000000D+00
 9 15 01 20 16 00  0.0-6.105005741119D-05-1.182343112305D-11 0.000000000000D+00
    9.800000000000D+01-3.846875000000D+01 4.668051722945D-09 8.253979585552D-01
   -2.153217792511D-06 2.886323491111D-04 8.821487426758D-06 5.153666866302D+03
    2.304000000000D+05-2.235174179077D-08 2.413403082257D+00 6.332993507385D-08
    9.583634897890D-01 2.066250000000D+02 2.255676116227D+00-8.037834398067D-09
   -7.914615629545D-10 1.000000000000D+00 1.828000000000D+03 0.000000000000D+00
    2.000000000000D+00 0.000000000000D+00 4.656612873077D-10 9.800000000000D+01
    2.304000000000D+05 0.000000000000D+00
10 15 01 20 16 00  0.0-1.596123911440D-04-1.705302565824D-12 0.000000000000D+00
    9.200000000000D+01 2.690625000000D+01 5.569517735893D-09 2.341332541578D+00
    1.154839992523D-06 1.452352956403D-02 4.855915904045D-06 5.153642480850D+03
    2.304000000000D+05-5.215406417847D-08 1.379165435525D+00-2.663582563400D-07
    9.410248457363D-01 2.754062500000D+02 9.182043843153D-01-8.367848636226D-09
    3.443000606840D-10 1.000000000000D+00 1.828000000000D+03 0.000000000000D+00
    2.000000000000D+00 0.000000000000D+00-3.259629011154D-09 9.200000000000D+01
    2.304000000000D+05 0.000000000000D+00
13 15 01 20 16 00  0.0-8.056545630097D-05-3.524291969370D-12 0.000000000000D+00
    6.600000000000D+01-2.268750000000D+01 4.315893864515D-09-7.763473452517D-01
   -1.111999154091D-06 5.332038388588D-03 1.017563045025D-05 5.153687490463D+03
    2.304000000000D+05 1.490116119385D-08 2.526517694369D+00-6.146728992462D-08
    9.752782738091D-01 1.888437500000D+02 2.068180546193D+00-7.914972677270D-09
   -7.896757692194D-10 1.000000000000D+00 1.828000000000D+03 0.000000000000D+00
    2.000000000000D+00 0.000000000000D+00-1.164153218269D-08 6.600000000000D+01
    2.304000000000D+05 0.000000000000D+00
20 15 01 20 16 00  0.0 2.807527780533D-04 4.206412995700D-12 0.000000000000D+00
    5.600000000000D+01 4.206250000000D+01 5.867744512500D-09 2.865229851456D+00
    2.102926373482D-06 5.837252130732D-03 4.811212420464D-06 5.155764766693D+03
    2.304000000000D+05 4.470348358154D-08 1.300101445689D+00-1.098960638046D-07
    9.260004459212D-01 2.661562500000D+02 1.239567939266D+00-8.636788173533D-09
    4.053740398913D-10 1.000000000000D+00 1.828000000000D+03 0.000000000000D+00
    2.000000000000D+00 0.000000000000D+00-8.381903171539D-09 5.600000000000D+01
    2.304000000000D+05 0.000000000000D+00
23 15 01 20 16 00  0.0-8.304091170430D-05-2.614797267597D-12 0.000000000000D+00
    2.400000000000D+01-3.659375000000D+01 4.969849864978D-09-1.128681089526D-02
   -2.004206180573D-06 9.714897139929D-03 8.422881364822D-06 5.153674245834D+03
    2.304000000000D+05 1.862645149231D-09 2.423181667037D+00 1.154839992523D-07
    9.494299464710D-01 2.086875000000D+02-2.714457877392D+00-8.374634319352D-09
   -8.011047936130D-10 1.000000000000D+00 1.828000000000D+03 0.000000000000D+00
    2.000000000000D+00 0.000000000000D+00-2.002343535423D-08 2.400000000000D+01
    2.304000000000D+05 0.000000000000D+00
30 15 01 20 16 00  0.0-8.635921403766D-05 2.273736754432D-13 0.000000000000D+00
    4.500000000000D+01 1.352187500000D+02 4.198032144132D-09-1.575854663026D+00
    6.925314664841D-06 9.695882909000D-04 1.098029315472D-05 5.153623142242D+03
    2.304000000000D+05-9.313225746155D-08-2.743817998096D+00 1.117587089539D-08
    9.575351709433D-01 1.676562500000D+02 3.090048149709D+00-7.822111847133D-09
    4.928776831115D-11 1.000000000000D+00 1.828000000000D+03 0.000000000000D+00
    2.000000000000D+00 0.000000000000D+00 3.259629011154D-09 4.500000000000D+01
    2.304000000000D+05 0.000000000000D+00
28 15 01 20 16 00  0.0 4.137908108532D-04 2.614797267597D-12 0.000000000000D+00
    3.800000000000D+01 5.396875000000D+01 4.108028139882D-09 2.045160971381D+00
    2.462416887283D-06 1.974931650329D-02 3.539025783539D-08 5.153684911728D+03
    2.304000000000D+05 3.147870302200D-07-1.704145604848D+00-3.147870302200D-07
    9.879721383309D-01 3.900312500000D+02-1.678184275865D+00-8.056050049277D-09
    2.285809458380D-10 1.000000000000D+00 1.828000000000D+03 0.000000000000D+00
    2.000000000000D+00 0.000000000000D+00-1.117587089539D-08 3.800000000000D+01
    2.304000000000D+05 0.000000000000D+00
15 15 01 20 16 00  0.0-2.274522557855D-04-2.273736754432D-12 0.000000000000D+00
    2.700000000000D+01-4.296875000000D+01 5.453084206408D-09 4.176368668804D-01
   -2.132728695869D-06 7.047822582535D-03 7.838010787964D-06 5.153572889328D+03
    2.304000000000D+05 9.499490261078D-08 2.372911143902D+00 8.940696716309D-08
    9.342530681674D-01 2.097812500000D+02 3.610191386505D-01-8.505711690532D-09
   -8.343204460637D-10 1.000000000000D+00 1.828000000000D+03 0.000000000000D+00
    2.000000000000D+00 0.000000000000D+00-1.071020960808D-08 2.700000000000D+01
    2.304000000000D+05 0.000000000000D+00
 5 15 01 20 18 00  0.0-2.902373671532D-04 5.115907697473D-12 0.000000000000D+00
    5.900000000000D+01 3.000000000000D+01 5.517729828597D-09 3.046926349855D+00
    1.555308699608D-06 4.043622408062D-03 5.025416612625D-06 5.153745056152D+03
    2.376000000000D+05-6.146728992462D-08 1.363254745809D+00-2.980232238770D-08
    9.462429384737D-01 2.766250000000D+02 4.241318574229D-01-8.438208354278D-09
    3.882304477898D-10 1.000000000000D+00 1.828000000000D+03 0.000000000000D+00
    2.000000000000D+00 0.000000000000D+00-1.071020960808D-08 5.900000000000D+01
    2.376000000000D+05 0.000000000000D+00
 7 15 01 20 18 00  0.0 4.332335665822D-04 3.296918293927D-12 0.000000000000D+00
    9.000000000000D+01 1.063437500000D+02 3.897305145273D-09-4.604703636161D-01
    5.446374416351D-06 7.969515048899D-03 1.150555908680D-05 5.153749240875D+03
    2.376000000000D+05 1.266598701477D-07-2.794966406667D+00 8.009374141693D-08
    9.718658813378D-01 1.652500000000D+02-2.751947033023D+00-7.822111847133D-09
   -1.046472145050D-10 1.000000000000D+00 1.828000000000D+03 0.000000000000D+00
    2.000000000000D+00 0.000000000000D+00-1.117587089539D-08 9.000000000000D+01
    2.376000000000D+05 0.000000000000D+00
